OBJECT_NAME,OBJECT_ID,EPOCH,MEAN_MOTION,ECCENTRICITY,INCLINATION,RA_OF_ASC_NODE,ARG_OF_PERICENTER,MEAN_ANOMALY,EPHEMERIS_TYPE,CLASSIFICATION_TYPE,NORAD_CAT_ID,ELEMENT_SET_NO,REV_AT_EPOCH,BSTAR,MEAN_MOTION_DOT,MEAN_MOTION_DDOT
DUBAISAT-1,2009-041B,2026-07-22T07:02:08.992896,14.75174542,.00094202,98.0092,336.1753,324.3179,35.7399,0,U,35682,999,91027,.1019404E-3,.638E-5,0
OCEANSAT-2,2009-051A,2026-07-22T22:37:22.159776,13.99656949,.00177868,98.2328,187.2243,131.3936,228.8763,0,U,35931,999,88433,.1311322E-3,.155E-5,0
WORLDVIEW-2 (WV-2),2009-055A,2026-07-22T22:20:30.918624,14.37908480,.00055394,98.4750,276.8937,111.4753,248.7025,0,U,35946,999,88078,.3659966E-4,.67E-6,0
SMOS,2009-059A,2026-07-22T18:31:07.218048,14.39739151,.000122,98.4432,30.5852,98.4135,261.7192,0,U,36036,999,87857,.79775637E-4,.206E-5,0
YAOGAN-7,2009-069A,2026-07-22T15:08:02.789376,14.78040201,.00231809,98.0023,89.2710,286.1393,73.7266,0,U,36110,999,89486,.51407222E-4,.319E-5,0
TANDEM-X,2010-030A,2026-07-22T11:55:52.291200,15.19149439,.00018225,97.4465,210.7021,100.4354,259.7087,0,U,36605,999,89200,.10450617E-4,.152E-5,0
CARTOSAT-2B,2010-035A,2026-07-22T22:25:41.638080,14.78655836,.00127559,97.9935,254.2512,77.9360,282.3279,0,U,36795,999,86513,.21714882E-4,.107E-5,0
YAOGAN-10,2010-038A,2026-07-22T23:46:46.888608,14.85447272,.00016522,97.8978,227.1099,85.2644,0.3132,0,U,36834,999,86252,.18145242E-3,.151E-4,0
COSMO-SKYMED 4,2010-060A,2026-07-22T22:54:12.150720,14.82158784,.00015656,97.8906,27.0374,87.1014,273.0378,0,U,37216,999,84986,.13346833E-3,.101E-4,0
RESOURCESAT-2,2011-015A,2026-07-22T21:56:00.481344,14.21600835,.00119796,98.7625,271.1053,149.8556,210.3313,0,U,37387,999,79125,.44737621E-4,.54E-6,0
HAIYANG-2A,2011-043A,2026-07-22T22:39:48.449664,13.73032836,.00014918,99.3413,205.7932,6.5599,353.5569,0,U,37781,999,75156,-.19309651E-3,-.222E-5,0
RASAT,2011-044D,2026-07-22T23:13:21.708768,14.68196706,.00219728,98.0575,294.8191,79.7385,35.7027,0,U,37791,999,79843,.24169863E-4,.91E-6,0
SRMSAT,2011-058D,2026-07-22T17:31:57.975168,14.11582174,.00115652,19.9701,204.3328,234.5012,307.5030,0,U,37841,999,76284,.46977244E-4,.352E-5,0
PLEIADES 1A,2011-076F,2026-07-22T22:39:30.273696,14.58548947,.00015926,98.1961,278.5639,76.9717,27.5198,0,U,38012,999,77720,.15769331E-4,.28E-6,0
ZIYUAN 1-02C (ZY 1-02C),2011-079A,2026-07-22T23:39:30.253248,14.38239323,.00061621,98.4052,270.5433,188.9657,294.8470,0,U,38038,999,76435,.56933494E-4,.13E-5,0
ARIRANG-3 (KOMPSAT-3),2012-025B,2026-07-22T21:21:32.537952,14.62233995,.00057166,98.1190,160.7386,17.5712,342.5687,0,U,38338,999,75656,.81774124E-4,.366E-5,0
EXACTVIEW-1 (ADS-1B),2012-039C,2026-07-22T18:28:31.648800,14.24993729,.00118521,98.9810,321.9695,71.5941,288.6525,0,U,38709,999,72777,.50770404E-4,.72E-6,0
SPOT 6,2012-047A,2026-07-22T22:33:03.832416,14.58540636,.00011413,98.2100,270.8263,93.7365,266.3965,0,U,38755,999,73826,.6579264E-5,-.15E-6,0
PLEIADES 1B,2012-068A,2026-07-22T22:59:52.672128,14.58536518,.00014656,98.1930,278.5144,77.4982,282.6382,0,U,39019,999,72606,.22137708E-4,.57E-6,0
GOKTURK 2,2012-073A,2026-07-22T22:53:00.697056,14.75572266,.00011526,97.6818,39.5909,108.3487,251.7849,0,U,39030,999,72978,.41544819E-4,.236E-5,0
LANDSAT 8,2013-008A,2026-07-22T20:53:27.331008,14.57097943,.00013329,98.2283,273.5786,91.6640,268.4711,0,U,39084,999,70309,.61696571E-4,.232E-5,0
SARAL,2013-009A,2026-07-22T20:43:24.805920,14.32897147,.00021404,98.5560,29.9801,149.5681,210.5628,0,U,39086,999,70071,.38225869E-4,.61E-6,0
GAOFEN-1,2013-018A,2026-07-22T23:31:06.983616,14.76525332,.00177137,97.9078,275.3169,146.6760,213.5569,0,U,39150,999,71352,.10142466E-3,.658E-5,0
VNREDSAT 1,2013-021B,2026-07-22T22:47:42.771840,14.64888207,.00015222,97.9060,255.9899,81.9146,278.2230,0,U,39160,999,70552,.49737599E-4,.221E-5,0
ARIRANG-5 (KOMPSAT-5),2013-042A,2026-07-22T22:44:32.019648,15.04503520,.0004415,97.6203,30.1457,34.4782,325.6729,0,U,39227,999,70923,.71034995E-4,.934E-5,0
SKYSAT-A,2013-066C,2026-07-22T08:58:33.755520,15.13143261,.00211474,97.3797,251.6497,187.9064,172.1837,0,U,39418,999,69380,.1302797E-3,.2256E-4,0
DUBAISAT-2,2013-066D,2026-07-22T21:56:07.469376,15.10414496,.000923,97.4593,193.1314,270.6386,89.3786,0,U,39419,999,69178,.30566538E-3,.4965E-4,0
GPM-CORE,2014-009C,2026-07-22T22:37:35.061888,15.45111814,.00108374,64.9699,188.3185,264.2147,95.7758,0,U,39574,999,70333,.14583E-3,.67E-4,0
SENTINEL-1A,2014-016A,2026-07-22T22:56:51.258048,14.59173925,.0001448,98.1700,210.9624,84.2278,275.9087,0,U,39634,999,65523,.35948371E-4,.124E-5,0
KAZEOSAT 1,2014-024A,2026-07-22T23:07:23.117664,14.42038468,.0001211,98.3189,275.5172,89.4127,270.7201,0,U,39731,999,64371,-.12150526E-4,-.83E-6,0
