{"epoch":1784799577,"count":18318,"objects":[{"id":"35682","name":"DUBAISAT 1","type":"PAYLOAD","l1":"1 35682U 09041B   26203.29315964  .00000638  00000-0  10194-3 0  9995","l2":"2 35682  98.0092 336.1753 0009420 324.3179  35.7399 14.75174542910271"},{"id":"35931","name":"OCEANSAT 2","type":"PAYLOAD","l1":"1 35931U 09051A   26203.94261759  .00000155  00000-0  13113-3 0  9995","l2":"2 35931  98.2328 187.2243 0017787 131.3936 228.8763 13.99656949884331"},{"id":"35946","name":"WORLDVIEW 2","type":"PAYLOAD","l1":"1 35946U 09055A   26203.93091341  .00000067  00000-0  36600-4 0  9991","l2":"2 35946  98.4750 276.8937 0005539 111.4753 248.7025 14.37908480880781"},{"id":"36036","name":"SMOS","type":"PAYLOAD","l1":"1 36036U 09059A   26203.77161132  .00000206  00000-0  79776-4 0  9990","l2":"2 36036  98.4432  30.5852 0001220  98.4135 261.7192 14.39739151878574"},{"id":"36110","name":"YAOGAN 7","type":"PAYLOAD","l1":"1 36110U 09069A   26203.63058784  .00000319  00000-0  51407-4 0  9993","l2":"2 36110  98.0023  89.2710 0023181 286.1393  73.7266 14.78040201894862"},{"id":"36605","name":"TANDEM X","type":"PAYLOAD","l1":"1 36605U 10030A   26203.49713300  .00000152  00000-0  10451-4 0  9997","l2":"2 36605  97.4465 210.7021 0001823 100.4354 259.7087 15.19149439892004"},{"id":"36795","name":"CARTOSAT 2B","type":"PAYLOAD","l1":"1 36795U 10035A   26203.93450970  .00000107  00000-0  21715-4 0  9997","l2":"2 36795  97.9935 254.2512 0012756  77.9360 282.3279 14.78655836865137"},{"id":"36834","name":"YAOGAN 10","type":"PAYLOAD","l1":"1 36834U 10038A   26203.99082047  .00001510  00000-0  18145-3 0  9997","l2":"2 36834  97.8978 227.1099 0001652  85.2644   0.3132 14.85447272862523"},{"id":"37216","name":"SKYMED 4","type":"PAYLOAD","l1":"1 37216U 10060A   26203.95430730  .00001010  00000-0  13347-3 0  9993","l2":"2 37216  97.8906  27.0374 0001566  87.1014 273.0378 14.82158784849865"},{"id":"37387","name":"RESOURCESAT 2","type":"PAYLOAD","l1":"1 37387U 11015A   26203.91389446  .00000054  00000-0  44738-4 0  9992","l2":"2 37387  98.7625 271.1053 0011980 149.8556 210.3313 14.21600835791250"},{"id":"37781","name":"HAIYANG 2A","type":"PAYLOAD","l1":"1 37781U 11043A   26203.94431076 -.00000222  00000-0 -19310-3 0  9997","l2":"2 37781  99.3413 205.7932 0001492   6.5599 353.5569 13.73032836751561"},{"id":"37791","name":"RASAT","type":"PAYLOAD","l1":"1 37791U 11044D   26203.96761237  .00000091  00000-0  24170-4 0  9999","l2":"2 37791  98.0575 294.8191 0021973  79.7385  35.7027 14.68196706798431"},{"id":"37841","name":"SRMSAT","type":"PAYLOAD","l1":"1 37841U 11058D   26203.73053212  .00000352  00000-0  46977-4 0  9991","l2":"2 37841  19.9701 204.3328 0011565 234.5012 307.5030 14.11582174762848"},{"id":"38012","name":"PLEIADES 1","type":"PAYLOAD","l1":"1 38012U 11076F   26203.94410039  .00000028  00000-0  15769-4 0  9994","l2":"2 38012  98.1961 278.5639 0001593  76.9717  27.5198 14.58548947777205"},{"id":"38038","name":"ZY 1","type":"PAYLOAD","l1":"1 38038U 11079A   26203.98576682  .00000130  00000-0  56933-4 0  9998","l2":"2 38038  98.4052 270.5433 0006162 188.9657 294.8470 14.38239323764352"},{"id":"38338","name":"KOMPSAT 3","type":"PAYLOAD","l1":"1 38338U 12025B   26203.88995993  .00000366  00000-0  81774-4 0  9994","l2":"2 38338  98.1190 160.7386 0005717  17.5712 342.5687 14.62233995756567"},{"id":"38709","name":"EXACTVIEW-1","type":"PAYLOAD","l1":"1 38709U 12039C   26203.76981075  .00000072  00000-0  50770-4 0  9990","l2":"2 38709  98.9810 321.9695 0011852  71.5941 288.6525 14.24993729727779"},{"id":"38755","name":"SPOT 6","type":"PAYLOAD","l1":"1 38755U 12047A   26203.93962769 -.00000015  00000-0  65793-5 0  9998","l2":"2 38755  98.2100 270.8263 0001141  93.7365 266.3965 14.58540636738263"},{"id":"39019","name":"PLEIADES 1B","type":"PAYLOAD","l1":"1 39019U 12068A   26203.95824852  .00000057  00000-0  22138-4 0  9997","l2":"2 39019  98.1930 278.5144 0001466  77.4982 282.6382 14.58536518726067"},{"id":"39030","name":"GOKTURK 2","type":"PAYLOAD","l1":"1 39030U 12073A   26203.95348029  .00000236  00000-0  41545-4 0  9995","l2":"2 39030  97.6818  39.5909 0001153 108.3487 251.7849 14.75572266729786"},{"id":"39084","name":"LANDSAT 8","type":"PAYLOAD","l1":"1 39084U 13008A   26203.87045522  .00000232  00000-0  61697-4 0  9992","l2":"2 39084  98.2283 273.5786 0001333  91.6640 268.4711 14.57097943703099"},{"id":"39086","name":"SARAL","type":"PAYLOAD","l1":"1 39086U 13009A   26203.86348155  .00000061  00000-0  38226-4 0  9994","l2":"2 39086  98.5560  29.9801 0002140 149.5681 210.5628 14.32897147700716"},{"id":"39150","name":"GAOFEN 1","type":"PAYLOAD","l1":"1 39150U 13018A   26203.97994194  .00000658  00000-0  10142-3 0  9996","l2":"2 39150  97.9078 275.3169 0017714 146.6760 213.5569 14.76525332713520"},{"id":"39160","name":"VNREDSAT 1","type":"PAYLOAD","l1":"1 39160U 13021B   26203.94980060  .00000221  00000-0  49738-4 0  9995","l2":"2 39160  97.9060 255.9899 0001522  81.9146 278.2230 14.64888207705529"},{"id":"39227","name":"KOMPSAT 5","type":"PAYLOAD","l1":"1 39227U 13042A   26203.94759282  .00000934  00000-0  71035-4 0  9998","l2":"2 39227  97.6203  30.1457 0004415  34.4782 325.6729 15.04503520709234"},{"id":"39418","name":"SKYSAT 1","type":"PAYLOAD","l1":"1 39418U 13066C   26203.37400180  .00002256  00000-0  13028-3 0  9999","l2":"2 39418  97.3797 251.6497 0021147 187.9064 172.1837 15.13143261693805"},{"id":"39419","name":"DUBAISAT 2","type":"PAYLOAD","l1":"1 39419U 13066D   26203.91397534  .00004965  00000-0  30567-3 0  9994","l2":"2 39419  97.4593 193.1314 0009230 270.6386  89.3786 15.10414496691780"},{"id":"39574","name":"GPM","type":"PAYLOAD","l1":"1 39574U 14009C   26203.94276692  .00006700  00000-0  14583-3 0  9997","l2":"2 39574  64.9699 188.3185 0010837 264.2147  95.7758 15.45111814703330"},{"id":"39634","name":"SENTINEL 1A","type":"PAYLOAD","l1":"1 39634U 14016A   26203.95614882  .00000124  00000-0  35948-4 0  9993","l2":"2 39634  98.1700 210.9624 0001448  84.2278 275.9087 14.59173925655239"},{"id":"39731","name":"KAZEOSAT 1","type":"PAYLOAD","l1":"1 39731U 14024A   26203.96346201 -.00000083  00000-0 -12151-4 0  9995","l2":"2 39731  98.3189 275.5172 0001211  89.4127 270.7201 14.42038468643718"}]}